{
  "type": "FeatureCollection",
  "features": [
    {
      "type": "Feature",
      "properties": {
        "norad_id": 40730,
        "name": "GPS BIIF-10 (PRN 08)",
        "group": "gps-ops",
        "lat": 52.266960933214136,
        "lon": 25.85577789296146,
        "alt_km": 20101.54013030685,
        "timestamp": "2025-12-09T21:34:11.666368+00:00",
        "meta_object_name": "GPS BIIF-10 (PRN 08)",
        "meta_object_id": "2015-033A",
        "meta_epoch": "2025-12-09T06:15:09.846432",
        "meta_mean_motion": 2.00565723,
        "meta_eccentricity": 0.01107518,
        "meta_inclination": 54.1337,
        "meta_ra_of_asc_node": 274.916,
        "meta_arg_of_pericenter": 26.7258,
        "meta_mean_anomaly": 333.8586,
        "meta_ephemeris_type": 0,
        "meta_classification_type": "U",
        "meta_norad_cat_id": 40730,
        "meta_element_set_no": 999,
        "meta_rev_at_epoch": 7618,
        "meta_bstar": 0,
        "meta_mean_motion_dot": -4.9e-07,
        "meta_mean_motion_ddot": 0,
        "tle_line1": "1 40730U 15033A   25343.26053063 -.00000049  00000+0  00000+0 0  9990",
        "tle_line2": "2 40730  54.1337 274.9160 0110751  26.7258 333.8586  2.00565723 76181"
      },
      "geometry": {
        "type": "Point",
        "coordinates": [
          25.85577789296146,
          52.266960933214136
        ]
      }
    },
    {
      "type": "Feature",
      "properties": {
        "norad_id": 41019,
        "name": "GPS BIIF-11 (PRN 10)",
        "group": "gps-ops",
        "lat": 44.48927625476555,
        "lon": 78.06760860987617,
        "alt_km": 20468.998105517105,
        "timestamp": "2025-12-09T21:34:11.666380+00:00",
        "meta_object_name": "GPS BIIF-11 (PRN 10)",
        "meta_object_id": "2015-062A",
        "meta_epoch": "2025-12-09T07:40:39.423936",
        "meta_mean_motion": 2.00567031,
        "meta_eccentricity": 0.0110732,
        "meta_inclination": 56.8297,
        "meta_ra_of_asc_node": 38.1346,
        "meta_arg_of_pericenter": 229.8556,
        "meta_mean_anomaly": 129.2222,
        "meta_ephemeris_type": 0,
        "meta_classification_type": "U",
        "meta_norad_cat_id": 41019,
        "meta_element_set_no": 999,
        "meta_rev_at_epoch": 7402,
        "meta_bstar": 0,
        "meta_mean_motion_dot": -8.3e-07,
        "meta_mean_motion_ddot": 0,
        "tle_line1": "1 41019U 15062A   25343.31990074 -.00000083  00000+0  00000+0 0  9999",
        "tle_line2": "2 41019  56.8297  38.1346 0110732 229.8556 129.2222  2.00567031 74027"
      },
      "geometry": {
        "type": "Point",
        "coordinates": [
          78.06760860987617,
          44.48927625476555
        ]
      }
    },
    {
      "type": "Feature",
      "properties": {
        "norad_id": 41328,
        "name": "GPS BIIF-12 (PRN 32)",
        "group": "gps-ops",
        "lat": -1.2841233403218446,
        "lon": 96.0793369373311,
        "alt_km": 20284.361127049146,
        "timestamp": "2025-12-09T21:34:11.666391+00:00",
        "meta_object_name": "GPS BIIF-12 (PRN 32)",
        "meta_object_id": "2016-007A",
        "meta_epoch": "2025-12-09T09:39:21.792384",
        "meta_mean_motion": 2.00560837,
        "meta_eccentricity": 0.00919989,
        "meta_inclination": 55.4044,
        "meta_ra_of_asc_node": 96.9895,
        "meta_arg_of_pericenter": 243.4939,
        "meta_mean_anomaly": 115.5474,
        "meta_ephemeris_type": 0,
        "meta_classification_type": "U",
        "meta_norad_cat_id": 41328,
        "meta_element_set_no": 999,
        "meta_rev_at_epoch": 7203,
        "meta_bstar": 0,
        "meta_mean_motion_dot": 4e-08,
        "meta_mean_motion_ddot": 0,
        "tle_line1": "1 41328U 16007A   25343.40233556  .00000004  00000+0  00000+0 0  9999",
        "tle_line2": "2 41328  55.4044  96.9895 0091998 243.4939 115.5474  2.00560837 72038"
      },
      "geometry": {
        "type": "Point",
        "coordinates": [
          96.0793369373311,
          -1.2841233403218446
        ]
      }
    },
    {
      "type": "Feature",
      "properties": {
        "norad_id": 43873,
        "name": "GPS BIII-1  (PRN 04)",
        "group": "gps-ops",
        "lat": -51.91462626997474,
        "lon": -19.368103624310994,
        "alt_km": 20135.85254483413,
        "timestamp": "2025-12-09T21:34:11.666403+00:00",
        "meta_object_name": "GPS BIII-1  (PRN 04)",
        "meta_object_id": "2018-109A",
        "meta_epoch": "2025-12-08T13:41:32.071776",
        "meta_mean_motion": 2.00553358,
        "meta_eccentricity": 0.003721,
        "meta_inclination": 55.5654,
        "meta_ra_of_asc_node": 99.7112,
        "meta_arg_of_pericenter": 194.8122,
        "meta_mean_anomaly": 178.3596,
        "meta_ephemeris_type": 0,
        "meta_classification_type": "U",
        "meta_norad_cat_id": 43873,
        "meta_element_set_no": 999,
        "meta_rev_at_epoch": 5125,
        "meta_bstar": 0,
        "meta_mean_motion_dot": 6e-08,
        "meta_mean_motion_ddot": 0,
        "tle_line1": "1 43873U 18109A   25342.57051009  .00000006  00000+0  00000+0 0  9991",
        "tle_line2": "2 43873  55.5654  99.7112 0037210 194.8122 178.3596  2.00553358 51259"
      },
      "geometry": {
        "type": "Point",
        "coordinates": [
          -19.368103624310994,
          -51.91462626997474
        ]
      }
    },
    {
      "type": "Feature",
      "properties": {
        "norad_id": 44506,
        "name": "GPS BIII-2  (PRN 18)",
        "group": "gps-ops",
        "lat": 25.52687924958533,
        "lon": 139.65261687962266,
        "alt_km": 20079.956512069533,
        "timestamp": "2025-12-09T21:34:11.666416+00:00",
        "meta_object_name": "GPS BIII-2  (PRN 18)",
        "meta_object_id": "2019-056A",
        "meta_epoch": "2025-12-09T10:21:29.039040",
        "meta_mean_motion": 2.00566038,
        "meta_eccentricity": 0.00577689,
        "meta_inclination": 55.7225,
        "meta_ra_of_asc_node": 338.6833,
        "meta_arg_of_pericenter": 198.4901,
        "meta_mean_anomaly": 333.2213,
        "meta_ephemeris_type": 0,
        "meta_classification_type": "U",
        "meta_norad_cat_id": 44506,
        "meta_element_set_no": 999,
        "meta_rev_at_epoch": 4626,
        "meta_bstar": 0,
        "meta_mean_motion_dot": -8.6e-07,
        "meta_mean_motion_ddot": 0,
        "tle_line1": "1 44506U 19056A   25343.43158610 -.00000086  00000+0  00000+0 0  9998",
        "tle_line2": "2 44506  55.7225 338.6833 0057768 198.4901 333.2213  2.00566038 46261"
      },
      "geometry": {
        "type": "Point",
        "coordinates": [
          139.65261687962266,
          25.52687924958533
        ]
      }
    },
    {
      "type": "Feature",
      "properties": {
        "norad_id": 45854,
        "name": "GPS BIII-3  (PRN 23)",
        "group": "gps-ops",
        "lat": 56.46758815203959,
        "lon": 130.79829337013737,
        "alt_km": 20232.432411694648,
        "timestamp": "2025-12-09T21:34:11.666428+00:00",
        "meta_object_name": "GPS BIII-3  (PRN 23)",
        "meta_object_id": "2020-041A",
        "meta_epoch": "2025-12-09T06:59:18.994848",
        "meta_mean_motion": 2.0056182,
        "meta_eccentricity": 0.0060408,
        "meta_inclination": 56.5448,
        "meta_ra_of_asc_node": 36.3195,
        "meta_arg_of_pericenter": 203.3087,
        "meta_mean_anomaly": 171.1637,
        "meta_ephemeris_type": 0,
        "meta_classification_type": "U",
        "meta_norad_cat_id": 45854,
        "meta_element_set_no": 999,
        "meta_rev_at_epoch": 4023,
        "meta_bstar": 0,
        "meta_mean_motion_dot": -8.4e-07,
        "meta_mean_motion_ddot": 0,
        "tle_line1": "1 45854U 20041A   25343.29119207 -.00000084  00000+0  00000+0 0  9992",
        "tle_line2": "2 45854  56.5448  36.3195 0060408 203.3087 171.1637  2.00561820 40237"
      },
      "geometry": {
        "type": "Point",
        "coordinates": [
          130.79829337013737,
          56.46758815203959
        ]
      }
    },
    {
      "type": "Feature",
      "properties": {
        "norad_id": 46826,
        "name": "GPS BIII-4  (PRN 14)",
        "group": "gps-ops",
        "lat": 46.40164082799197,
        "lon": -91.84030278650165,
        "alt_km": 20307.284594614306,
        "timestamp": "2025-12-09T21:34:11.666440+00:00",
        "meta_object_name": "GPS BIII-4  (PRN 14)",
        "meta_object_id": "2020-078A",
        "meta_epoch": "2025-12-08T14:24:03.317760",
        "meta_mean_motion": 2.00566768,
        "meta_eccentricity": 0.0064574,
        "meta_inclination": 54.0161,
        "meta_ra_of_asc_node": 218.509,
        "meta_arg_of_pericenter": 203.354,
        "meta_mean_anomaly": 2.942,
        "meta_ephemeris_type": 0,
        "meta_classification_type": "U",
        "meta_norad_cat_id": 46826,
        "meta_element_set_no": 999,
        "meta_rev_at_epoch": 3768,
        "meta_bstar": 0,
        "meta_mean_motion_dot": 1.6e-07,
        "meta_mean_motion_ddot": 0,
        "tle_line1": "1 46826U 20078A   25342.60003840  .00000016  00000+0  00000+0 0  9995",
        "tle_line2": "2 46826  54.0161 218.5090 0064574 203.3540   2.9420  2.00566768 37684"
      },
      "geometry": {
        "type": "Point",
        "coordinates": [
          -91.84030278650165,
          46.40164082799197
        ]
      }
    }
  ]
}